     2.11           N: GPS NAV DATA                         RINEX VERSION / TYPE
teqc  2019Feb25                         20221121 12:26:43UTCPGM / RUN BY / DATE
OSX ker:10.11.6|Core i5|gcc 4.3 -m64|OSX ker:10.10+|=+      COMMENT
    5.5879D-09  1.4901D-08 -5.9605D-08 -1.1921D-07          ION ALPHA
    7.7824D+04  3.2768D+04 -6.5536D+04 -2.6214D+05          ION BETA
   -4.656612873077D-09-1.598721155460D-14    61440     1547 DELTA-UTC: A0,A1,T,W
                                                            END OF HEADER
20 09  8 29 14  0  0.0 7.358100265265D-05-9.094947017729D-13 0.000000000000D+00
    3.500000000000D+01 4.506250000000D+01 4.793056792911D-09 9.001607395594D-01
    2.222135663033D-06 3.824286279269D-03 7.765367627144D-06 5.153785104752D+03
    5.688000000000D+05-3.166496753693D-08-1.006779528728D+00-1.490116119385D-08
    9.404928658172D-01 2.164062500000D+02 1.328645227384D+00-8.205341785421D-09
   -1.910793877949D-10 1.000000000000D+00 1.546000000000D+03 0.000000000000D+00
    2.000000000000D+00 0.000000000000D+00-6.519258022308D-09 3.500000000000D+01
    5.616180000000D+05 4.000000000000D+00
17 09  8 29 14  0  0.0 8.085090667009D-05 2.728484105319D-12 0.000000000000D+00
    3.900000000000D+01-8.687500000000D+00 4.628049919713D-09-6.140439603900D-01
   -5.997717380524D-07 4.630028852262D-03 8.128583431244D-06 5.153723379135D+03
    5.688000000000D+05 1.210719347000D-07-3.056617165402D+00 9.685754776001D-08
    9.602346907492D-01 2.254375000000D+02-2.641189531574D+00-7.980689570612D-09
    8.964659128322D-11 1.000000000000D+00 1.546000000000D+03 0.000000000000D+00
    2.000000000000D+00 0.000000000000D+00-1.024454832077D-08 3.900000000000D+01
    5.616180000000D+05 4.000000000000D+00
 4 09  8 29 13 59 44.0-2.414253540337D-04-1.716671249596D-11 0.000000000000D+00
    1.100000000000D+01 1.743750000000D+01 5.013065957176D-09 1.169744973259D+00
    1.139938831329D-06 8.707021246664D-03 6.955116987228D-06 5.153787263870D+03
    5.687840000000D+05-1.136213541031D-07-2.023928830840D+00 6.332993507385D-08
    9.399096091565D-01 2.366250000000D+02 5.065034099458D-01-8.216770832915D-09
   -2.875119760278D-10 1.000000000000D+00 1.546000000000D+03 0.000000000000D+00
    2.000000000000D+00 0.000000000000D+00-6.053596735001D-09 1.100000000000D+01
    5.642580000000D+05 4.000000000000D+00
29 09  8 29 14  0  0.0 5.286838859320D-05 3.183231456205D-12 0.000000000000D+00
    5.000000000000D+00-7.375000000000D+00 4.564475843026D-09 1.974900616275D+00
   -4.526227712631D-07 3.166295588017D-03 8.001923561096D-06 5.153617950439D+03
    5.688000000000D+05 7.823109626770D-08-3.048416691797D+00-3.725290298462D-09
    9.604877828915D-01 2.219062500000D+02-1.281470693872D+00-7.841755212009D-09
    1.535778257043D-10 1.000000000000D+00 1.546000000000D+03 0.000000000000D+00
    2.000000000000D+00 0.000000000000D+00-8.847564458847D-09 5.000000000000D+00
    5.656980000000D+05 4.000000000000D+00
23 09  8 29 14  0  0.0 3.891009837389D-04-3.410605131648D-13 0.000000000000D+00
    8.000000000000D+01 5.646875000000D+01 4.344109521027D-09-1.764137758436D+00
    2.712011337280D-06 6.448631524108D-03 5.399808287621D-06 5.153579158783D+03
    5.688000000000D+05-9.313225746155D-09 7.256080695172D-02-9.499490261078D-08
    9.701831890755D-01 2.860000000000D+02 2.953734990850D+00-8.037120492614D-09
    2.292952653539D-10 1.000000000000D+00 1.546000000000D+03 0.000000000000D+00
    2.000000000000D+00 0.000000000000D+00-2.002343535423D-08 8.000000000000D+01
    5.666280000000D+05 4.000000000000D+00
 2 09  8 29 14  0  0.0 1.685102470219D-04 2.614797267597D-12 0.000000000000D+00
    3.400000000000D+01 1.396875000000D+01 4.964849663060D-09-1.680346075262D+00
    7.785856723785D-07 9.069764171727D-03 6.929039955139D-06 5.153695520401D+03
    5.688000000000D+05-8.381903171539D-08-2.042190691771D+00-1.061707735062D-07
    9.407256994699D-01 2.359375000000D+02 2.886490094653D+00-8.163911488254D-09
   -3.785871982478D-11 1.000000000000D+00 1.546000000000D+03 0.000000000000D+00
    2.000000000000D+00 0.000000000000D+00-1.722946763039D-08 3.400000000000D+01
    5.667480000000D+05 4.000000000000D+00
32 09  8 29 13 59 44.0 2.063931897283D-04-6.821210263297D-12 0.000000000000D+00
    1.500000000000D+01 5.553125000000D+01 4.149101398156D-09-2.632816853493D+00
    2.969056367874D-06 1.325720944442D-02 7.703900337219D-06 5.153739587784D+03
    5.687840000000D+05 8.754432201386D-08-8.952243009769D-01 1.639127731323D-07
    9.625575662034D-01 2.250312500000D+02-1.126695327451D+00-7.645675615936D-09
   -9.357532635937D-11 1.000000000000D+00 1.546000000000D+03 0.000000000000D+00
    2.000000000000D+00 0.000000000000D+00-3.259629011154D-09 1.500000000000D+01
    5.674680000000D+05 4.000000000000D+00
16 09  8 29 14  0  0.0 1.814123243093D-05-3.865352482535D-12 0.000000000000D+00
    8.000000000000D+01-7.240625000000D+01 4.280178286606D-09 5.120926142786D-01
   -3.937631845474D-06 5.294758593664D-03 7.642433047295D-06 5.153613054276D+03
    5.688000000000D+05 8.754432201386D-08 2.184184676059D+00-3.725290298462D-08
    9.692394884180D-01 2.346875000000D+02-2.852516342870D-01-7.913186758848D-09
   -6.035965707914D-11 1.000000000000D+00 1.546000000000D+03 0.000000000000D+00
    2.000000000000D+00 0.000000000000D+00-9.778887033463D-09 8.000000000000D+01
    5.686980000000D+05 4.000000000000D+00
31 09  8 29 16  0  0.0-6.481586024165D-05 2.273736754432D-13 0.000000000000D+00
    3.600000000000D+01-4.228125000000D+01 4.425184326689D-09-2.502805120634D+00
   -1.991167664528D-06 7.002056227066D-03 3.183260560036D-06 5.153777750015D+03
    5.760000000000D+05 5.401670932770D-08 1.112343404745D+00 1.210719347000D-07
    9.737560124579D-01 3.240937500000D+02-1.140153489135D+00-8.013190924423D-09
    8.357490980188D-11 1.000000000000D+00 1.546000000000D+03 0.000000000000D+00
    2.000000000000D+00 0.000000000000D+00-1.303851604462D-08 3.600000000000D+01
    5.688180000000D+05 4.000000000000D+00
30 09  8 29 16  0  0.0 1.725987531245D-04 2.955857780762D-12 0.000000000000D+00
    6.700000000000D+01-9.340625000000D+01 4.653050961107D-09 1.474555463851D+00
   -5.042180418968D-06 1.185687258840D-02 7.998198270798D-06 5.153683891296D+03
    5.760000000000D+05-1.769512891769D-07 2.117760942112D+00-2.533197402954D-07
    9.529275670867D-01 2.228750000000D+02 1.447352923487D+00-8.073907739237D-09
    9.071806448581D-11 1.000000000000D+00 1.546000000000D+03 0.000000000000D+00
    2.000000000000D+00 0.000000000000D+00-8.381903171539D-09 6.700000000000D+01
    5.688180000000D+05 4.000000000000D+00
20 09  8 29 16  0  0.0 7.357448339462D-05-9.094947017729D-13 0.000000000000D+00
    3.600000000000D+01 4.303125000000D+01 4.706981778970D-09 1.950393419086D+00
    2.259388566017D-06 3.824598970823D-03 8.143484592438D-06 5.153784339905D+03
    5.760000000000D+05 5.215406417847D-08-1.006838507734D+00-9.126961231232D-08
    9.404919983068D-01 2.105000000000D+02 1.328526887552D+00-8.103194673441D-09
   -1.689356082747D-10 1.000000000000D+00 1.546000000000D+03 0.000000000000D+00
    2.000000000000D+00 0.000000000000D+00-6.519258022308D-09 3.600000000000D+01
    5.688180000000D+05 4.000000000000D+00
32 09  8 29 15 59 44.0 2.063438296318D-04-6.821210263297D-12 0.000000000000D+00
    1.600000000000D+01 5.418750000000D+01 4.208389582032D-09-1.582773400957D+00
    3.054738044739D-06 1.325770409312D-02 8.778646588326D-06 5.153737083435D+03
    5.759840000000D+05-2.160668373108D-07-8.952801464117D-01 2.160668373108D-07
    9.625555356731D-01 2.149375000000D+02-1.126600288978D+00-7.929973172356D-09
   -1.060758470562D-10 1.000000000000D+00 1.546000000000D+03 0.000000000000D+00
    2.000000000000D+00 0.000000000000D+00-3.259629011154D-09 1.600000000000D+01
    5.688180000000D+05 4.000000000000D+00
14 09  8 29 16  0  0.0-5.832966417074D-05 5.343281372916D-12 0.000000000000D+00
    2.500000000000D+01 7.250000000000D+01 3.915877397726D-09-6.321542732486D-02
    3.715977072716D-06 4.829708021134D-03 5.342066287994D-06 5.153642690659D+03
    5.760000000000D+05-5.774199962616D-08 1.066414746398D-01 5.587935447693D-08
    9.882435271896D-01 2.944375000000D+02-2.163847066036D+00-7.940687904382D-09
    2.132231673151D-10 1.000000000000D+00 1.546000000000D+03 0.000000000000D+00
    2.000000000000D+00 0.000000000000D+00-9.313225746155D-09 2.500000000000D+01
    5.688180000000D+05 4.000000000000D+00
12 09  8 29 16  0  0.0-2.269796095788D-04 5.798028723802D-12 0.000000000000D+00
    8.900000000000D+01-8.637500000000D+01 4.310893851747D-09-2.308471938791D+00
   -4.492700099945D-06 3.121381509118D-03 8.668750524521D-06 5.153591777802D+03
    5.760000000000D+05-1.285225152969D-07 2.167045225858D+00 6.891787052155D-08
    9.678373077715D-01 2.140625000000D+02-6.034102487903D-01-7.813182593274D-09
    5.178787145843D-11 1.000000000000D+00 1.546000000000D+03 0.000000000000D+00
    2.800000000000D+00 0.000000000000D+00-1.164153218269D-08 8.900000000000D+01
    5.688180000000D+05 4.000000000000D+00
29 09  8 29 16  0  0.0 5.289167165756D-05 3.183231456205D-12 0.000000000000D+00
    6.000000000000D+00-5.187500000000D+00 4.574833417318D-09 3.025015797147D+00
   -2.402812242508D-07 3.165790927596D-03 8.290633559227D-06 5.153619070053D+03
    5.760000000000D+05 5.587935447693D-08-3.048473078511D+00 4.097819328308D-08
    9.604888713025D-01 2.182187500000D+02-1.281370813141D+00-7.829254691312D-09
    1.585780339831D-10 1.000000000000D+00 1.546000000000D+03 0.000000000000D+00
    2.000000000000D+00 0.000000000000D+00-8.847564458847D-09 6.000000000000D+00
    5.688180000000D+05 4.000000000000D+00
